[{"OBJECT_NAME":"STARLINK-33651","OBJECT_ID":"2025-076V","EPOCH":"2026-03-09T01:23:27.917664","MEAN_MOTION":15.27609489,"ECCENTRICITY":0.00013675,"INCLINATION":42.9966,"RA_OF_ASC_NODE":325.2776,"ARG_OF_PERICENTER":264.0688,"MEAN_ANOMALY":96.0008,"EPHEMERIS_TYPE":0,"CLASSIFICATION_TYPE":"U","NORAD_CAT_ID":63588,"ELEMENT_SET_NO":999,"REV_AT_EPOCH":5173,"BSTAR":0.0012600074,"MEAN_MOTION_DOT":0.00034605,"MEAN_MOTION_DDOT":0},{"OBJECT_NAME":"CZ-6A DEB","OBJECT_ID":"2023-168D","EPOCH":"2026-03-09T19:03:52.964928","MEAN_MOTION":15.28240044,"ECCENTRICITY":0.00013417,"INCLINATION":97.7802,"RA_OF_ASC_NODE":98.3362,"ARG_OF_PERICENTER":174.0661,"MEAN_ANOMALY":186.0594,"EPHEMERIS_TYPE":0,"CLASSIFICATION_TYPE":"U","NORAD_CAT_ID":58202,"ELEMENT_SET_NO":999,"REV_AT_EPOCH":12922,"BSTAR":0.0014474773,"MEAN_MOTION_DOT":0.00039923,"MEAN_MOTION_DDOT":0}]
